HST                     
1 20580U 90037B   23228.74945833  .00004301  00000+0  22217-3 0  9998
2 20580  28.4680 224.8871 0002187 314.5320 222.7194 15.13761622630913
